OBJECT_NAME,OBJECT_ID,EPOCH,MEAN_MOTION,ECCENTRICITY,INCLINATION,RA_OF_ASC_NODE,ARG_OF_PERICENTER,MEAN_ANOMALY,EPHEMERIS_TYPE,CLASSIFICATION_TYPE,NORAD_CAT_ID,ELEMENT_SET_NO,REV_AT_EPOCH,BSTAR,MEAN_MOTION_DOT,MEAN_MOTION_DDOT
HAWK-5A,2022-057AB,2026-06-18T06:27:43.296768,15.51423111,.0005544,97.6612,328.1861,75.7215,284.4652,0,U,52757,999,22651,.24203458E-3,.14175E-3,0
HAWK-6B,2023-011A,2026-06-18T11:52:14.155392,15.22943672,.00021273,40.4999,344.4459,9.1621,350.9226,0,U,55324,999,18804,.17085477E-3,.3902E-4,0
HAWK-6C,2023-011C,2026-06-18T11:51:17.099424,15.22939741,.00030585,40.4990,341.2884,358.2260,1.8538,0,U,55326,999,18805,.1549006E-3,.3518E-4,0
HAWK-6A,2023-011D,2026-06-18T11:51:21.668256,15.22941648,.00027355,40.4998,342.9122,354.1285,5.9492,0,U,55327,999,18805,.16990613E-3,.3879E-4,0
HAWK-7A,2023-054P,2026-06-18T14:48:46.390176,15.27372779,.00042215,97.2696,56.9179,54.1191,306.0440,0,U,56191,999,17724,.16764767E-3,.4421E-4,0
HAWK-7B,2023-054R,2026-06-18T14:48:39.307968,15.27371072,.00036597,97.2721,55.1823,66.3809,293.7814,0,U,56193,999,17724,.17318951E-3,.457E-4,0
HAWK-7C,2023-054Y,2026-06-18T14:48:29.577600,15.27372367,.00035925,97.2699,55.9506,57.7061,302.4526,0,U,56200,999,17724,.16838793E-3,.4441E-4,0
