HAWK-5A                 
1 52757U 22057AB  26169.26925112  .00014175  00000+0  24203-3 0  9995
2 52757  97.6612 328.1861 0005544  75.7215 284.4652 15.51423111226514
HAWK-6B                 
1 55324U 23011A   26169.49460828  .00003902  00000+0  17085-3 0  9998
2 55324  40.4999 344.4459 0002127   9.1621 350.9226 15.22943672188049
HAWK-6C                 
1 55326U 23011C   26169.49394791  .00003518  00000+0  15490-3 0  9996
2 55326  40.4990 341.2884 0003058 358.2260   1.8538 15.22939741188051
HAWK-6A                 
1 55327U 23011D   26169.49400079  .00003879  00000+0  16991-3 0  9991
2 55327  40.4998 342.9122 0002735 354.1285   5.9492 15.22941648188059
HAWK-7A                 
1 56191U 23054P   26169.61720359  .00004421  00000+0  16765-3 0  9991
2 56191  97.2696  56.9179 0004221  54.1191 306.0440 15.27372779177248
HAWK-7B                 
1 56193U 23054R   26169.61712162  .00004570  00000+0  17319-3 0  9997
2 56193  97.2721  55.1823 0003659  66.3809 293.7814 15.27371072177243
HAWK-7C                 
1 56200U 23054Y   26169.61700900  .00004441  00000+0  16839-3 0  9996
2 56200  97.2699  55.9506 0003592  57.7061 302.4526 15.27372367177248
